{
  "type": "FeatureCollection",
  "features": [
    {
      "type": "Feature",
      "properties": {
        "norad_id": 36046,
        "name": "COSMOS 2251 DEB",
        "group": "cosmos-2251-debris",
        "lat": 68.00278657573763,
        "lon": 54.09436372080934,
        "alt_km": 639.0291453701348,
        "timestamp": "2025-12-11T07:02:24.127980+00:00",
        "meta_object_name": "COSMOS 2251 DEB",
        "meta_object_id": "1993-036AXH",
        "meta_epoch": "2025-12-07T14:53:37.140000",
        "meta_mean_motion": 14.65217113,
        "meta_eccentricity": 0.00554066,
        "meta_inclination": 74.0172,
        "meta_ra_of_asc_node": 286.36,
        "meta_arg_of_pericenter": 73.7608,
        "meta_mean_anomaly": 105.7765,
        "meta_ephemeris_type": 0,
        "meta_classification_type": "U",
        "meta_norad_cat_id": 36046,
        "meta_element_set_no": 999,
        "meta_rev_at_epoch": 63928,
        "meta_bstar": 0.0010874052,
        "meta_mean_motion_dot": 5.963e-05,
        "meta_mean_motion_ddot": 0,
        "tle_line1": "1 36046U 93036AXH 25341.62056875  .00005963  00000+0  10874-2 0  9998",
        "tle_line2": "2 36046  74.0172 286.3600 0055406  73.7608 105.7765 14.65217113639288"
      },
      "geometry": {
        "type": "Point",
        "coordinates": [
          54.09436372080934,
          68.00278657573763
        ]
      }
    },
    {
      "type": "Feature",
      "properties": {
        "norad_id": 36047,
        "name": "COSMOS 2251 DEB",
        "group": "cosmos-2251-debris",
        "lat": -53.852524381168124,
        "lon": -179.85020447638055,
        "alt_km": 589.8105803590934,
        "timestamp": "2025-12-11T07:02:24.127991+00:00",
        "meta_object_name": "COSMOS 2251 DEB",
        "meta_object_id": "1993-036AXJ",
        "meta_epoch": "2025-12-10T17:08:31.046208",
        "meta_mean_motion": 14.95793611,
        "meta_eccentricity": 0.00081787,
        "meta_inclination": 74.0361,
        "meta_ra_of_asc_node": 338.2472,
        "meta_arg_of_pericenter": 4.5379,
        "meta_mean_anomaly": 355.5878,
        "meta_ephemeris_type": 0,
        "meta_classification_type": "U",
        "meta_norad_cat_id": 36047,
        "meta_element_set_no": 999,
        "meta_rev_at_epoch": 65909,
        "meta_bstar": 0.0029068673,
        "meta_mean_motion_dot": 0.00032578,
        "meta_mean_motion_ddot": 0,
        "tle_line1": "1 36047U 93036AXJ 25344.71424822  .00032578  00000+0  29069-2 0  9991",
        "tle_line2": "2 36047  74.0361 338.2472 0008178   4.5379 355.5878 14.95793611659090"
      },
      "geometry": {
        "type": "Point",
        "coordinates": [
          -179.85020447638055,
          -53.852524381168124
        ]
      }
    },
    {
      "type": "Feature",
      "properties": {
        "norad_id": 36048,
        "name": "COSMOS 2251 DEB",
        "group": "cosmos-2251-debris",
        "lat": 65.58581832517324,
        "lon": 82.91435240909856,
        "alt_km": 767.273140294119,
        "timestamp": "2025-12-11T07:02:24.128001+00:00",
        "meta_object_name": "COSMOS 2251 DEB",
        "meta_object_id": "1993-036AXK",
        "meta_epoch": "2025-12-10T07:51:23.656896",
        "meta_mean_motion": 14.3784538,
        "meta_eccentricity": 0.0026514,
        "meta_inclination": 74.0571,
        "meta_ra_of_asc_node": 303.7212,
        "meta_arg_of_pericenter": 354.2337,
        "meta_mean_anomaly": 156.0655,
        "meta_ephemeris_type": 0,
        "meta_classification_type": "U",
        "meta_norad_cat_id": 36048,
        "meta_element_set_no": 999,
        "meta_rev_at_epoch": 85467,
        "meta_bstar": 0.00048763,
        "meta_mean_motion_dot": 1.45e-05,
        "meta_mean_motion_ddot": 0,
        "tle_line1": "1 36048U 93036AXK 25344.32735714  .00001450  00000+0  48763-3 0  9992",
        "tle_line2": "2 36048  74.0571 303.7212 0026514 354.2337 156.0655 14.37845380854671"
      },
      "geometry": {
        "type": "Point",
        "coordinates": [
          82.91435240909856,
          65.58581832517324
        ]
      }
    },
    {
      "type": "Feature",
      "properties": {
        "norad_id": 36049,
        "name": "COSMOS 2251 DEB",
        "group": "cosmos-2251-debris",
        "lat": 73.8971656115014,
        "lon": -155.31956737041753,
        "alt_km": 682.758830510903,
        "timestamp": "2025-12-11T07:02:24.128011+00:00",
        "meta_object_name": "COSMOS 2251 DEB",
        "meta_object_id": "1993-036AXL",
        "meta_epoch": "2025-12-10T15:51:32.776128",
        "meta_mean_motion": 14.62096087,
        "meta_eccentricity": 0.0010896,
        "meta_inclination": 74.0301,
        "meta_ra_of_asc_node": 123.1637,
        "meta_arg_of_pericenter": 209.0948,
        "meta_mean_anomaly": 150.9613,
        "meta_ephemeris_type": 0,
        "meta_classification_type": "U",
        "meta_norad_cat_id": 36049,
        "meta_element_set_no": 999,
        "meta_rev_at_epoch": 85334,
        "meta_bstar": 0.0024714,
        "meta_mean_motion_dot": 0.00012422,
        "meta_mean_motion_ddot": 0,
        "tle_line1": "1 36049U 93036AXL 25344.66079602  .00012422  00000+0  24714-2 0  9997",
        "tle_line2": "2 36049  74.0301 123.1637 0010896 209.0948 150.9613 14.62096087853349"
      },
      "geometry": {
        "type": "Point",
        "coordinates": [
          -155.31956737041753,
          73.8971656115014
        ]
      }
    },
    {
      "type": "Feature",
      "properties": {
        "norad_id": 36050,
        "name": "COSMOS 2251 DEB",
        "group": "cosmos-2251-debris",
        "lat": -40.375667105993806,
        "lon": -177.12143442729226,
        "alt_km": 523.1080051167655,
        "timestamp": "2025-12-11T07:02:24.128021+00:00",
        "meta_object_name": "COSMOS 2251 DEB",
        "meta_object_id": "1993-036AXM",
        "meta_epoch": "2025-12-10T07:13:56.773056",
        "meta_mean_motion": 15.00978663,
        "meta_eccentricity": 0.0088905,
        "meta_inclination": 74.0317,
        "meta_ra_of_asc_node": 198.9901,
        "meta_arg_of_pericenter": 279.1661,
        "meta_mean_anomaly": 79.9477,
        "meta_ephemeris_type": 0,
        "meta_classification_type": "U",
        "meta_norad_cat_id": 36050,
        "meta_element_set_no": 999,
        "meta_rev_at_epoch": 66998,
        "meta_bstar": 0.00072759,
        "meta_mean_motion_dot": 0.00010072,
        "meta_mean_motion_ddot": 0,
        "tle_line1": "1 36050U 93036AXM 25344.30135154  .00010072  00000+0  72759-3 0  9997",
        "tle_line2": "2 36050  74.0317 198.9901 0088905 279.1661  79.9477 15.00978663669983"
      },
      "geometry": {
        "type": "Point",
        "coordinates": [
          -177.12143442729226,
          -40.375667105993806
        ]
      }
    },
    {
      "type": "Feature",
      "properties": {
        "norad_id": 36053,
        "name": "COSMOS 2251 DEB",
        "group": "cosmos-2251-debris",
        "lat": 73.75001553540356,
        "lon": -107.65416403647751,
        "alt_km": 672.4023631338814,
        "timestamp": "2025-12-11T07:02:24.128058+00:00",
        "meta_object_name": "COSMOS 2251 DEB",
        "meta_object_id": "1993-036AXQ",
        "meta_epoch": "2025-12-09T11:46:46.363296",
        "meta_mean_motion": 14.57102394,
        "meta_eccentricity": 0.00328266,
        "meta_inclination": 73.8711,
        "meta_ra_of_asc_node": 158.9194,
        "meta_arg_of_pericenter": 109.1774,
        "meta_mean_anomaly": 251.2947,
        "meta_ephemeris_type": 0,
        "meta_classification_type": "U",
        "meta_norad_cat_id": 36053,
        "meta_element_set_no": 999,
        "meta_rev_at_epoch": 87397,
        "meta_bstar": 0.0022318191,
        "meta_mean_motion_dot": 0.00010116,
        "meta_mean_motion_ddot": 0,
        "tle_line1": "1 36053U 93036AXQ 25343.49081439  .00010116  00000+0  22318-2 0  9999",
        "tle_line2": "2 36053  73.8711 158.9194 0032826 109.1774 251.2947 14.57102394873973"
      },
      "geometry": {
        "type": "Point",
        "coordinates": [
          -107.65416403647751,
          73.75001553540356
        ]
      }
    },
    {
      "type": "Feature",
      "properties": {
        "norad_id": 36058,
        "name": "COSMOS 2251 DEB",
        "group": "cosmos-2251-debris",
        "lat": -29.714554104393496,
        "lon": -134.37312425334028,
        "alt_km": 678.6898296899308,
        "timestamp": "2025-12-11T07:02:24.128069+00:00",
        "meta_object_name": "COSMOS 2251 DEB",
        "meta_object_id": "1993-036AXV",
        "meta_epoch": "2025-12-09T21:09:28.031616",
        "meta_mean_motion": 14.58669067,
        "meta_eccentricity": 0.00447805,
        "meta_inclination": 74.0233,
        "meta_ra_of_asc_node": 38.9054,
        "meta_arg_of_pericenter": 173.9779,
        "meta_mean_anomaly": 186.1934,
        "meta_ephemeris_type": 0,
        "meta_classification_type": "U",
        "meta_norad_cat_id": 36058,
        "meta_element_set_no": 999,
        "meta_rev_at_epoch": 66069,
        "meta_bstar": 0.00079291916,
        "meta_mean_motion_dot": 3.72e-05,
        "meta_mean_motion_ddot": 0,
        "tle_line1": "1 36058U 93036AXV 25343.88157444  .00003720  00000+0  79292-3 0  9994",
        "tle_line2": "2 36058  74.0233  38.9054 0044780 173.9779 186.1934 14.58669067660699"
      },
      "geometry": {
        "type": "Point",
        "coordinates": [
          -134.37312425334028,
          -29.714554104393496
        ]
      }
    }
  ]
}